FENGYUN 1C DEB          
1 31386U 99025BSS 17345.30098937  .00000624  00000-0  58542-3 0  9994
2 31386  98.4753 271.7261 0222019 280.2291  77.3894 13.74516884537218
